{"type":"FeatureCollection","features":[{"type":"Feature","geometry":{"type":"Point","coordinates":[-0.700056,46.810942]},"properties":{"station_id":"hydro:M702241010","source":"hydro","code":"M702241010","libelle":"La Sèvre Nantaise à Saint-Mesmin [La Branle]","en_service":true,"zone_id":"BOCAGE_SEVRE_NANTAISE","fichier":"hydro_M702241010"}},{"type":"Feature","geometry":{"type":"Point","coordinates":[-0.888085,46.958936]},"properties":{"station_id":"hydro:M703243010","source":"hydro","code":"M703243010","libelle":"La Sèvre Nantaise à Saint-Laurent-sur-Sèvre","en_service":true,"zone_id":"BOCAGE_SEVRE_NANTAISE","fichier":"hydro_M703243010"}},{"type":"Feature","geometry":{"type":"Point","coordinates":[-1.114538,47.018818]},"properties":{"station_id":"hydro:M711241010","source":"hydro","code":"M711241010","libelle":"La Sèvre Nantaise à Tiffauges - Ancienne Station","en_service":true,"zone_id":"BOCAGE_SEVRE_NANTAISE","fichier":"hydro_M711241010"}},{"type":"Feature","geometry":{"type":"Point","coordinates":[-1.113383,47.017457]},"properties":{"station_id":"hydro:M711241020","source":"hydro","code":"M711241020","libelle":"La Sèvre Nantaise à Tiffauges","en_service":true,"zone_id":"BOCAGE_SEVRE_NANTAISE","fichier":"hydro_M711241020"}},{"type":"Feature","geometry":{"type":"Point","coordinates":[-1.157151,46.903572]},"properties":{"station_id":"hydro:M741301010","source":"hydro","code":"M741301010","libelle":"La Maine à Saint-Fulgent [Plessis des Landes]","en_service":true,"zone_id":"BOCAGE_MAINES","fichier":"hydro_M741301010"}},{"type":"Feature","geometry":{"type":"Point","coordinates":[-1.273251,46.922745]},"properties":{"station_id":"hydro:M743311010","source":"hydro","code":"M743311010","libelle":"La Petite Maine à Saint-Georges-de-Montaigu [Fromage]","en_service":true,"zone_id":"BOCAGE_MAINES","fichier":"hydro_M743311010"}},{"type":"Feature","geometry":{"type":"Point","coordinates":[-1.530454,46.945431]},"properties":{"station_id":"hydro:M811261010","source":"hydro","code":"M811261010","libelle":"La Boulogne à Rocheservière - La Vacherie","en_service":false,"zone_id":"BOCAGE_LOGNE_BOULOGNE","fichier":"hydro_M811261010"}},{"type":"Feature","geometry":{"type":"Point","coordinates":[-1.548078,46.994533]},"properties":{"station_id":"hydro:M811261020","source":"hydro","code":"M811261020","libelle":"La Boulogne à Saint-Philbert-de-Bouaine - Le Petit Roquet","en_service":true,"zone_id":"BOCAGE_LOGNE_BOULOGNE","fichier":"hydro_M811261020"}},{"type":"Feature","geometry":{"type":"Point","coordinates":[-1.540917,46.99097]},"properties":{"station_id":"hydro:M812401010","source":"hydro","code":"M812401010","libelle":"L'Issoire à Saint-Philbert-de-Bouaine [La Tribouille]","en_service":true,"zone_id":"BOCAGE_LOGNE_BOULOGNE","fichier":"hydro_M812401010"}},{"type":"Feature","geometry":{"type":"Point","coordinates":[-1.703513,46.88758]},"properties":{"station_id":"hydro:N011301010","source":"hydro","code":"N011301010","libelle":"Le Falleron à Falleron","en_service":true,"zone_id":"MARAIS_BRETON","fichier":"hydro_N011301010"}},{"type":"Feature","geometry":{"type":"Point","coordinates":[-1.882539,46.865323]},"properties":{"station_id":"hydro:N020421010","source":"hydro","code":"N020421010","libelle":"Le Pont Abert à la Coudrie à Challans","en_service":true,"zone_id":"MARAIS_BRETON","fichier":"hydro_N020421010"}},{"type":"Feature","geometry":{"type":"Point","coordinates":[-1.618008,46.776984]},"properties":{"station_id":"hydro:N100151010","source":"hydro","code":"N100151010","libelle":"La Vie à la Chapelle-Palluau","en_service":true,"zone_id":"BOCAGE_VIE_JAUNAY","fichier":"hydro_N100151010"}},{"type":"Feature","geometry":{"type":"Point","coordinates":[-1.653431,46.789276]},"properties":{"station_id":"hydro:N101401010","source":"hydro","code":"N101401010","libelle":"La Petite Boulogne à la Chapelle-Palluau [La Birochère]","en_service":true,"zone_id":"BOCAGE_VIE_JAUNAY","fichier":"hydro_N101401010"}},{"type":"Feature","geometry":{"type":"Point","coordinates":[-1.786987,46.658729]},"properties":{"station_id":"hydro:N120301010","source":"hydro","code":"N120301010","libelle":"Le Jaunay à Landevieille [Savarière]","en_service":false,"zone_id":"BOCAGE_VIE_JAUNAY","fichier":"hydro_N120301010"}},{"type":"Feature","geometry":{"type":"Point","coordinates":[-1.717127,46.671688]},"properties":{"station_id":"hydro:N120302010","source":"hydro","code":"N120302010","libelle":"Le Jaunay à la Chapelle-Hermier [Reveillère]","en_service":true,"zone_id":"BOCAGE_VIE_JAUNAY","fichier":"hydro_N120302010"}},{"type":"Feature","geometry":{"type":"Point","coordinates":[-1.71218,46.671725]},"properties":{"station_id":"hydro:N120302020","source":"hydro","code":"N120302020","libelle":"Le Jaunay à la Chapelle-Hermier [Reveillère] - Lavaud","en_service":false,"zone_id":"BOCAGE_VIE_JAUNAY","fichier":"hydro_N120302020"}},{"type":"Feature","geometry":{"type":"Point","coordinates":[-1.739079,46.580257]},"properties":{"station_id":"hydro:N201301010","source":"hydro","code":"N201301010","libelle":"L'Auzance à Vairé [Petit Besson]","en_service":false,"zone_id":"BOCAGE_COTIERS_VENDEENS","fichier":"hydro_N201301010"}},{"type":"Feature","geometry":{"type":"Point","coordinates":[-1.666987,46.575175]},"properties":{"station_id":"hydro:N202401010","source":"hydro","code":"N202401010","libelle":"La Ciboule à la Chapelle-Achard [La Renelière]","en_service":true,"zone_id":"BOCAGE_COTIERS_VENDEENS","fichier":"hydro_N202401010"}},{"type":"Feature","geometry":{"type":"Point","coordinates":[-0.951655,46.750196]},"properties":{"station_id":"hydro:N300161010","source":"hydro","code":"N300161010","libelle":"Le Lay [Grand] à Saint-Prouant [Monsireigne]","en_service":true,"zone_id":"BOCAGE_LAY","fichier":"hydro_N300161010"}},{"type":"Feature","geometry":{"type":"Point","coordinates":[-0.9717,46.669473]},"properties":{"station_id":"hydro:N302401010","source":"hydro","code":"N302401010","libelle":"Le Loing à Chantonnay [St-Philbert du Pont Charrault]","en_service":true,"zone_id":"SUD_VENDEE","fichier":"hydro_N302401010"}},{"type":"Feature","geometry":{"type":"Point","coordinates":[-1.038682,46.655249]},"properties":{"station_id":"hydro:N303161010","source":"hydro","code":"N303161010","libelle":"Le Lay à Chantonnay [St-Philbert du Pont Charraud]","en_service":false,"zone_id":"BOCAGE_LAY","fichier":"hydro_N303161010"}},{"type":"Feature","geometry":{"type":"Point","coordinates":[-1.113289,46.687029]},"properties":{"station_id":"hydro:N311301010","source":"hydro","code":"N311301010","libelle":"Le Petit Lay à Saint-Hilaire-le-Vouhis","en_service":true,"zone_id":"BOCAGE_LAY","fichier":"hydro_N311301010"}},{"type":"Feature","geometry":{"type":"Point","coordinates":[-1.120899,46.528018]},"properties":{"station_id":"hydro:N322201010","source":"hydro","code":"N322201010","libelle":"La Smagne à Sainte-Pexine [Les Mottes]","en_service":true,"zone_id":"SUD_VENDEE","fichier":"hydro_N322201010"}},{"type":"Feature","geometry":{"type":"Point","coordinates":[-1.219646,46.535678]},"properties":{"station_id":"hydro:N330161010","source":"hydro","code":"N330161010","libelle":"Le Lay à Mareuil-sur-Lay-Dissais","en_service":true,"zone_id":"BOCAGE_LAY","fichier":"hydro_N330161010"}},{"type":"Feature","geometry":{"type":"Point","coordinates":[-1.238643,46.566689]},"properties":{"station_id":"hydro:N330411010","source":"hydro","code":"N330411010","libelle":"Le Marillet à Château-Guibert [Barilleraie]","en_service":false,"zone_id":"BOCAGE_LAY","fichier":"hydro_N330411010"}},{"type":"Feature","geometry":{"type":"Point","coordinates":[-1.286244,46.603493]},"properties":{"station_id":"hydro:N330412010","source":"hydro","code":"N330412010","libelle":"Le Marillet à Saint-Florent-des-Bois [La Clopinière]","en_service":true,"zone_id":"BOCAGE_LAY","fichier":"hydro_N330412010"}},{"type":"Feature","geometry":{"type":"Point","coordinates":[-1.219874,46.544461]},"properties":{"station_id":"hydro:N330413010","source":"hydro","code":"N330413010","libelle":"Le Marillet à Mareuil-sur-Lay-Dissais [Moulin Fleury]","en_service":true,"zone_id":"BOCAGE_LAY","fichier":"hydro_N330413010"}},{"type":"Feature","geometry":{"type":"Point","coordinates":[-1.195967,46.57379]},"properties":{"station_id":"hydro:N330821010","source":"hydro","code":"N330821010","libelle":"La Doulaye à Moutiers-sur-le-Lay","en_service":false,"zone_id":"BOCAGE_LAY","fichier":"hydro_N330821010"}},{"type":"Feature","geometry":{"type":"Point","coordinates":[-1.384236,46.735954]},"properties":{"station_id":"hydro:N340301010","source":"hydro","code":"N340301010","libelle":"L'Yon à Dompierre-sur-Yon","en_service":true,"zone_id":"BOCAGE_LAY","fichier":"hydro_N340301010"}},{"type":"Feature","geometry":{"type":"Point","coordinates":[-1.412272,46.617534]},"properties":{"station_id":"hydro:N342301010","source":"hydro","code":"N342301010","libelle":"L'Yon à Nesmy - Brancaire","en_service":false,"zone_id":"BOCAGE_LAY","fichier":"hydro_N342301010"}},{"type":"Feature","geometry":{"type":"Point","coordinates":[-1.394086,46.606275]},"properties":{"station_id":"hydro:N342301020","source":"hydro","code":"N342301020","libelle":"L'Yon à Nesmy - Moulin de Rambourg","en_service":false,"zone_id":"BOCAGE_LAY","fichier":"hydro_N342301020"}},{"type":"Feature","geometry":{"type":"Point","coordinates":[-1.354796,46.576601]},"properties":{"station_id":"hydro:N342301021","source":"hydro","code":"N342301021","libelle":"L'Yon à Chaillé-sous-les-Ormeaux - Rassouillet","en_service":true,"zone_id":"BOCAGE_LAY","fichier":"hydro_N342301021"}},{"type":"Feature","geometry":{"type":"Point","coordinates":[-1.35364,46.504978]},"properties":{"station_id":"hydro:N350421010","source":"hydro","code":"N350421010","libelle":"Le Graon au Champ-Saint-Père","en_service":false,"zone_id":"BOCAGE_LAY","fichier":"hydro_N350421010"}},{"type":"Feature","geometry":{"type":"Point","coordinates":[-1.316253,46.334945]},"properties":{"station_id":"hydro:N352000101","source":"hydro","code":"N352000101","libelle":"Le Lay [Estuaire] à l'Aiguillon-sur-Mer - Le Lay à l'Aiguillon-sur-Mer","en_service":true,"zone_id":"MARAIS_POITEVIN","fichier":"hydro_N352000101"}},{"type":"Feature","geometry":{"type":"Point","coordinates":[-0.656921,46.463457]},"properties":{"station_id":"hydro:N510171001","source":"hydro","code":"N510171001","libelle":"L'Autise à Saint-Hilaire-des-Loges","en_service":true,"zone_id":"SUD_VENDEE","fichier":"hydro_N510171001"}},{"type":"Feature","geometry":{"type":"Point","coordinates":[-0.684344,46.419099]},"properties":{"station_id":"hydro:N520171001","source":"hydro","code":"N520171001","libelle":"L'Autise à Nieul-sur-l'Autise","en_service":false,"zone_id":"SUD_VENDEE","fichier":"hydro_N520171001"}},{"type":"Feature","geometry":{"type":"Point","coordinates":[-0.775855,46.318927]},"properties":{"station_id":"hydro:N602000101","source":"hydro","code":"N602000101","libelle":"La Sèvre niortaise à Maillé [Bazoin]","en_service":true,"zone_id":"MARAIS_POITEVIN","fichier":"hydro_N602000101"}},{"type":"Feature","geometry":{"type":"Point","coordinates":[-0.669263,46.500696]},"properties":{"station_id":"hydro:N710181010","source":"hydro","code":"N710181010","libelle":"La Vendée à Foussais-Payré [Pont d'Izard]","en_service":true,"zone_id":"BOCAGE_VENDEE","fichier":"hydro_N710181010"}},{"type":"Feature","geometry":{"type":"Point","coordinates":[-0.775513,46.60039]},"properties":{"station_id":"hydro:N711401010","source":"hydro","code":"N711401010","libelle":"La Mère à Antigny [Moulin-Texier]","en_service":true,"zone_id":"BOCAGE_VENDEE","fichier":"hydro_N711401010"}},{"type":"Feature","geometry":{"type":"Point","coordinates":[-0.798496,46.49576]},"properties":{"station_id":"hydro:N712181010","source":"hydro","code":"N712181010","libelle":"La Vendée à Pissotte [Pont de Crochet]","en_service":true,"zone_id":"BOCAGE_VENDEE","fichier":"hydro_N712181010"}},{"type":"Feature","geometry":{"type":"Point","coordinates":[-0.840002,46.462901]},"properties":{"station_id":"hydro:N712181201","source":"hydro","code":"N712181201","libelle":"La Longèves à Fontenay-le-Comte - pont du Gué Migné","en_service":true,"zone_id":"SUD_VENDEE","fichier":"hydro_N712181201"}},{"type":"Feature","geometry":{"type":"Point","coordinates":[-0.930165,46.956605]},"properties":{"station_id":"onde:M7100001","source":"onde","code":"M7100001","libelle":"Le Blanc à la Verrie","en_service":true,"zone_id":"BOCAGE_SEVRE_NANTAISE","fichier":"onde_M7100001"}},{"type":"Feature","geometry":{"type":"Point","coordinates":[-1.108135,46.992797]},"properties":{"station_id":"onde:M7112411","source":"onde","code":"M7112411","libelle":"La Crume à Tiffauges","en_service":true,"zone_id":"BOCAGE_SEVRE_NANTAISE","fichier":"onde_M7112411"}},{"type":"Feature","geometry":{"type":"Point","coordinates":[-1.097204,46.861664]},"properties":{"station_id":"onde:M7400001","source":"onde","code":"M7400001","libelle":"Le Longuenais à Mesnard-la-Barotière","en_service":true,"zone_id":"BOCAGE_MAINES","fichier":"onde_M7400001"}},{"type":"Feature","geometry":{"type":"Point","coordinates":[-1.179774,46.949083]},"properties":{"station_id":"onde:M7413011","source":"onde","code":"M7413011","libelle":"La Lignée à la Boissière-de-Montaigu","en_service":true,"zone_id":"BOCAGE_MAINES","fichier":"onde_M7413011"}},{"type":"Feature","geometry":{"type":"Point","coordinates":[-1.225591,46.79136]},"properties":{"station_id":"onde:M7420001","source":"onde","code":"M7420001","libelle":"La Petite Maine aux Essarts","en_service":true,"zone_id":"BOCAGE_MAINES","fichier":"onde_M7420001"}},{"type":"Feature","geometry":{"type":"Point","coordinates":[-1.331486,46.90973]},"properties":{"station_id":"onde:M7433111","source":"onde","code":"M7433111","libelle":"Le Bouvreau aux Brouzils","en_service":true,"zone_id":"BOCAGE_MAINES","fichier":"onde_M7433111"}},{"type":"Feature","geometry":{"type":"Point","coordinates":[-1.322231,46.785846]},"properties":{"station_id":"onde:M8100001","source":"onde","code":"M8100001","libelle":"La Boulogne à Dompierre-sur-Yon","en_service":true,"zone_id":"BOCAGE_LOGNE_BOULOGNE","fichier":"onde_M8100001"}},{"type":"Feature","geometry":{"type":"Point","coordinates":[-1.66996,46.876848]},"properties":{"station_id":"onde:N0113032","source":"onde","code":"N0113032","libelle":"Le Falleron à Falleron","en_service":true,"zone_id":"MARAIS_BRETON","fichier":"onde_N0113032"}},{"type":"Feature","geometry":{"type":"Point","coordinates":[-1.869228,46.874813]},"properties":{"station_id":"onde:N0204211","source":"onde","code":"N0204211","libelle":"Le Pont Habert à Challans","en_service":true,"zone_id":"MARAIS_BRETON","fichier":"onde_N0204211"}},{"type":"Feature","geometry":{"type":"Point","coordinates":[-1.848849,46.829402]},"properties":{"station_id":"onde:N0210001","source":"onde","code":"N0210001","libelle":"Les Godinières à Challans","en_service":true,"zone_id":"MARAIS_BRETON","fichier":"onde_N0210001"}},{"type":"Feature","geometry":{"type":"Point","coordinates":[-1.483922,46.77883]},"properties":{"station_id":"onde:N1001511","source":"onde","code":"N1001511","libelle":"La Vie  au Poiré-sur-Vie","en_service":true,"zone_id":"BOCAGE_VIE_JAUNAY","fichier":"onde_N1001511"}},{"type":"Feature","geometry":{"type":"Point","coordinates":[-1.591917,46.831753]},"properties":{"station_id":"onde:N1014011","source":"onde","code":"N1014011","libelle":"La Petite Boulogne à Saint-Etienne-du-Bois","en_service":true,"zone_id":"BOCAGE_VIE_JAUNAY","fichier":"onde_N1014011"}},{"type":"Feature","geometry":{"type":"Point","coordinates":[-1.856332,46.790683]},"properties":{"station_id":"onde:N1110001","source":"onde","code":"N1110001","libelle":"Le Ligneron à Soullans","en_service":true,"zone_id":"BOCAGE_VIE_JAUNAY","fichier":"onde_N1110001"}},{"type":"Feature","geometry":{"type":"Point","coordinates":[-1.572403,46.654627]},"properties":{"station_id":"onde:N1203021","source":"onde","code":"N1203021","libelle":"L'Idavière à Landeronde","en_service":true,"zone_id":"BOCAGE_VIE_JAUNAY","fichier":"onde_N1203021"}},{"type":"Feature","geometry":{"type":"Point","coordinates":[-1.569941,46.689463]},"properties":{"station_id":"onde:N1203022","source":"onde","code":"N1203022","libelle":"Le Jaunay à Venansault","en_service":true,"zone_id":"BOCAGE_VIE_JAUNAY","fichier":"onde_N1203022"}},{"type":"Feature","geometry":{"type":"Point","coordinates":[-1.584716,46.634837]},"properties":{"station_id":"onde:N2013011","source":"onde","code":"N2013011","libelle":"L'Auzance à Sainte-Flaive-des-Loups","en_service":true,"zone_id":"BOCAGE_COTIERS_VENDEENS","fichier":"onde_N2013011"}},{"type":"Feature","geometry":{"type":"Point","coordinates":[-1.641839,46.572956]},"properties":{"station_id":"onde:N2024011","source":"onde","code":"N2024011","libelle":"La Ciboule au Girouard","en_service":true,"zone_id":"BOCAGE_COTIERS_VENDEENS","fichier":"onde_N2024011"}},{"type":"Feature","geometry":{"type":"Point","coordinates":[-1.629974,46.557182]},"properties":{"station_id":"onde:N2040001","source":"onde","code":"N2040001","libelle":"La Vertonne à Grosbreuil","en_service":true,"zone_id":"BOCAGE_COTIERS_VENDEENS","fichier":"onde_N2040001"}},{"type":"Feature","geometry":{"type":"Point","coordinates":[-0.918447,46.698145]},"properties":{"station_id":"onde:N3010001","source":"onde","code":"N3010001","libelle":"La Maine à Chavagnes les Redoux","en_service":true,"zone_id":"BOCAGE_LAY","fichier":"onde_N3010001"}},{"type":"Feature","geometry":{"type":"Point","coordinates":[-0.983448,46.797099]},"properties":{"station_id":"onde:N3100001","source":"onde","code":"N3100001","libelle":"La Louisière à Rochetrejoux","en_service":true,"zone_id":"BOCAGE_LAY","fichier":"onde_N3100001"}},{"type":"Feature","geometry":{"type":"Point","coordinates":[-0.989202,46.83114]},"properties":{"station_id":"onde:N3100002","source":"onde","code":"N3100002","libelle":"Le Petit Lay à St Paul en pareds","en_service":true,"zone_id":"BOCAGE_LAY","fichier":"onde_N3100002"}},{"type":"Feature","geometry":{"type":"Point","coordinates":[-1.192866,46.674393]},"properties":{"station_id":"onde:N3113011","source":"onde","code":"N3113011","libelle":"La Vouraie à Saint-Hilaire-le-Vouhis","en_service":true,"zone_id":"BOCAGE_LAY","fichier":"onde_N3113011"}},{"type":"Feature","geometry":{"type":"Point","coordinates":[-0.909737,46.557969]},"properties":{"station_id":"onde:N3210001","source":"onde","code":"N3210001","libelle":"La Smagne à Saint-Laurent-de-la-Salle","en_service":true,"zone_id":"BOCAGE_LAY","fichier":"onde_N3210001"}},{"type":"Feature","geometry":{"type":"Point","coordinates":[-1.165016,46.600901]},"properties":{"station_id":"onde:N3308211","source":"onde","code":"N3308211","libelle":"La Doulaye aux Pineaux","en_service":true,"zone_id":"BOCAGE_LAY","fichier":"onde_N3308211"}},{"type":"Feature","geometry":{"type":"Point","coordinates":[-1.298198,46.71916]},"properties":{"station_id":"onde:N3403011","source":"onde","code":"N3403011","libelle":"L'Yon à la Ferrière","en_service":true,"zone_id":"BOCAGE_LAY","fichier":"onde_N3403011"}},{"type":"Feature","geometry":{"type":"Point","coordinates":[-1.45952,46.671071]},"properties":{"station_id":"onde:N3410001","source":"onde","code":"N3410001","libelle":"L'Amboise à Saint-André-d'Ornay","en_service":true,"zone_id":"BOCAGE_LAY","fichier":"onde_N3410001"}},{"type":"Feature","geometry":{"type":"Point","coordinates":[-1.50932,46.691276]},"properties":{"station_id":"onde:N3410002","source":"onde","code":"N3410002","libelle":"Le Guyon à Venansault","en_service":true,"zone_id":"BOCAGE_LAY","fichier":"onde_N3410002"}},{"type":"Feature","geometry":{"type":"Point","coordinates":[-0.695807,46.402125]},"properties":{"station_id":"onde:N5201711","source":"onde","code":"N5201711","libelle":"L'Autize à Saint-Pierre-le-Vieux","en_service":true,"zone_id":"SUD_VENDEE","fichier":"onde_N5201711"}},{"type":"Feature","geometry":{"type":"Point","coordinates":[-0.689884,46.659804]},"properties":{"station_id":"onde:N7114011","source":"onde","code":"N7114011","libelle":"La Mère à Breuil-Barret","en_service":true,"zone_id":"BOCAGE_VENDEE","fichier":"onde_N7114011"}},{"type":"Feature","geometry":{"type":"Point","coordinates":[-0.835591,46.455408]},"properties":{"station_id":"onde:N7121811","source":"onde","code":"N7121811","libelle":"La Longèves à Fontenay-le-Comte","en_service":true,"zone_id":"SUD_VENDEE","fichier":"onde_N7121811"}},{"type":"Feature","geometry":{"type":"Point","coordinates":[-2.240129,46.990356]},"properties":{"station_id":"piezo:05068X0028/SP010","source":"piezo","code":"05068X0028/SP010","libelle":"L'Epine forage du terrain-neuf (L'Epine-85)","en_service":true,"zone_id":"ILE_NOIRMOUTIER","fichier":"piezo_05068X0028_SP010"}},{"type":"Feature","geometry":{"type":"Point","coordinates":[-2.238518,46.987672]},"properties":{"station_id":"piezo:05068X0054/F","source":"piezo","code":"05068X0054/F","libelle":"Forage du Bon Port (L'Epine-85)","en_service":true,"zone_id":"ILE_NOIRMOUTIER","fichier":"piezo_05068X0054_F"}},{"type":"Feature","geometry":{"type":"Point","coordinates":[-2.025545,46.996012]},"properties":{"station_id":"piezo:05076X0001/S","source":"piezo","code":"05076X0001/S","libelle":"Forage Port des Brochets (bouin-85)","en_service":true,"zone_id":"MARAIS_BRETON","fichier":"piezo_05076X0001_S"}},{"type":"Feature","geometry":{"type":"Point","coordinates":[-1.990272,46.992167]},"properties":{"station_id":"piezo:05076X0019/F","source":"piezo","code":"05076X0019/F","libelle":"Forage les Murs (Bouin-85)","en_service":true,"zone_id":"MARAIS_BRETON","fichier":"piezo_05076X0019_F"}},{"type":"Feature","geometry":{"type":"Point","coordinates":[-2.241496,46.978586]},"properties":{"station_id":"piezo:05334X0011/SF7","source":"piezo","code":"05334X0011/SF7","libelle":"l'Epine forage de Brémaud (l'Epine,85)","en_service":true,"zone_id":"ILE_NOIRMOUTIER","fichier":"piezo_05334X0011_SF7"}},{"type":"Feature","geometry":{"type":"Point","coordinates":[-2.253645,46.965124]},"properties":{"station_id":"piezo:05334X0017/PZ","source":"piezo","code":"05334X0017/PZ","libelle":"La Guérinière rue des Francs (la Guérinière,85)","en_service":false,"zone_id":"ILE_NOIRMOUTIER","fichier":"piezo_05334X0017_PZ"}},{"type":"Feature","geometry":{"type":"Point","coordinates":[-2.093811,46.926358]},"properties":{"station_id":"piezo:05341X0104/SF7","source":"piezo","code":"05341X0104/SF7","libelle":"Beauvoir forage du Petit Champ de Bataille (Beauvoir,85)","en_service":true,"zone_id":"MARAIS_BRETON","fichier":"piezo_05341X0104_SF7"}},{"type":"Feature","geometry":{"type":"Point","coordinates":[-2.044816,46.964256]},"properties":{"station_id":"piezo:05342X0034/F4","source":"piezo","code":"05342X0034/F4","libelle":"FORAGE IFREMER(BOUIN,85)","en_service":true,"zone_id":"MARAIS_BRETON","fichier":"piezo_05342X0034_F4"}},{"type":"Feature","geometry":{"type":"Point","coordinates":[-2.044625,46.964335]},"properties":{"station_id":"piezo:05342X0035/SF5","source":"piezo","code":"05342X0035/SF5","libelle":"Bouin forage du Polder du Dain (Bouin,85)","en_service":false,"zone_id":"MARAIS_BRETON","fichier":"piezo_05342X0035_SF5"}},{"type":"Feature","geometry":{"type":"Point","coordinates":[-2.06127,46.943379]},"properties":{"station_id":"piezo:05342X0052/F","source":"piezo","code":"05342X0052/F","en_service":true,"zone_id":"MARAIS_BRETON","fichier":"piezo_05342X0052_F"}},{"type":"Feature","geometry":{"type":"Point","coordinates":[-2.012633,46.959336]},"properties":{"station_id":"piezo:05342X0073/F","source":"piezo","code":"05342X0073/F","libelle":"Bouin forage du Pont Guérineau (Bouin,85)","en_service":true,"zone_id":"MARAIS_BRETON","fichier":"piezo_05342X0073_F"}},{"type":"Feature","geometry":{"type":"Point","coordinates":[-2.040044,46.967078]},"properties":{"station_id":"piezo:05342X0078/FORAGE","source":"piezo","code":"05342X0078/FORAGE","libelle":"Bouin forage polder du Dain (Bouin,85)","en_service":true,"zone_id":"MARAIS_BRETON","fichier":"piezo_05342X0078_FORAGE"}},{"type":"Feature","geometry":{"type":"Point","coordinates":[-2.037834,46.93022]},"properties":{"station_id":"piezo:05342X0080/F","source":"piezo","code":"05342X0080/F","libelle":"Beauvoir forage de la Madelaine(Beauvoir,85)","en_service":false,"zone_id":"MARAIS_BRETON","fichier":"piezo_05342X0080_F"}},{"type":"Feature","geometry":{"type":"Point","coordinates":[-2.047615,46.950813]},"properties":{"station_id":"piezo:05342X0082/FE","source":"piezo","code":"05342X0082/FE","en_service":true,"zone_id":"MARAIS_BRETON","fichier":"piezo_05342X0082_FE"}},{"type":"Feature","geometry":{"type":"Point","coordinates":[-1.867121,46.825384]},"properties":{"station_id":"piezo:05348X0255/P3","source":"piezo","code":"05348X0255/P3","libelle":"Forage du Préneau (Challans - 85)","en_service":true,"zone_id":"MARAIS_BRETON","fichier":"piezo_05348X0255_P3"}},{"type":"Feature","geometry":{"type":"Point","coordinates":[-1.209852,46.916766]},"properties":{"station_id":"piezo:05363X0222/F","source":"piezo","code":"05363X0222/F","en_service":false,"zone_id":"BOCAGE_MAINES","fichier":"piezo_05363X0222_F"}},{"type":"Feature","geometry":{"type":"Point","coordinates":[-1.308109,46.875228]},"properties":{"station_id":"piezo:05366X0017/P","source":"piezo","code":"05366X0017/P","en_service":false,"zone_id":"BOCAGE_MAINES","fichier":"piezo_05366X0017_P"}},{"type":"Feature","geometry":{"type":"Point","coordinates":[-1.307858,46.861817]},"properties":{"station_id":"piezo:05366X0035/PIEZO","source":"piezo","code":"05366X0035/PIEZO","libelle":"Les Brouzils forage de Chambord (Brouzils,85)","en_service":true,"zone_id":"BOCAGE_MAINES","fichier":"piezo_05366X0035_PIEZO"}},{"type":"Feature","geometry":{"type":"Point","coordinates":[-2.348852,46.707302]},"properties":{"station_id":"piezo:05596X0058/SF2","source":"piezo","code":"05596X0058/SF2","libelle":"Forage de Ker Bossy ( Ile d'Yeu - 85)","en_service":true,"zone_id":"ILE_YEU","fichier":"piezo_05596X0058_SF2"}},{"type":"Feature","geometry":{"type":"Point","coordinates":[-2.033634,46.760373]},"properties":{"station_id":"piezo:05602X0071/PA28","source":"piezo","code":"05602X0071/PA28","en_service":false,"zone_id":"MARAIS_BRETON","fichier":"piezo_05602X0071_PA28"}},{"type":"Feature","geometry":{"type":"Point","coordinates":[-1.884899,46.76802]},"properties":{"station_id":"piezo:05604X0162/SF1","source":"piezo","code":"05604X0162/SF1","libelle":"Forage du Breuil( Notre Dame de Riez - 85)","en_service":true,"zone_id":"BOCAGE_VIE_JAUNAY","fichier":"piezo_05604X0162_SF1"}},{"type":"Feature","geometry":{"type":"Point","coordinates":[-1.624907,46.782283]},"properties":{"station_id":"piezo:05612X0007/F","source":"piezo","code":"05612X0007/F","libelle":"Forage du stade (Chapelle Palluau - 85)","en_service":true,"zone_id":"BOCAGE_VIE_JAUNAY","fichier":"piezo_05612X0007_F"}},{"type":"Feature","geometry":{"type":"Point","coordinates":[-1.375219,46.697984]},"properties":{"station_id":"piezo:05625X0006/SC","source":"piezo","code":"05625X0006/SC","libelle":" forage des Ajoncs (la Roche sur Yon,85)","en_service":false,"zone_id":"BOCAGE_LAY","fichier":"piezo_05625X0006_SC"}},{"type":"Feature","geometry":{"type":"Point","coordinates":[-1.37941,46.699919]},"properties":{"station_id":"piezo:05625X0036/F","source":"piezo","code":"05625X0036/F","libelle":" forage des Ajoncs (la Roche sur Yon,85)","en_service":true,"zone_id":"BOCAGE_LAY","fichier":"piezo_05625X0036_F"}},{"type":"Feature","geometry":{"type":"Point","coordinates":[-0.810171,46.798963]},"properties":{"station_id":"piezo:05634X0013/SF3","source":"piezo","code":"05634X0013/SF3","libelle":" forage du Tail (lPouzauges,85)","en_service":true,"zone_id":"BOCAGE_SEVRE_NANTAISE","fichier":"piezo_05634X0013_SF3"}},{"type":"Feature","geometry":{"type":"Point","coordinates":[-1.039785,46.687282]},"properties":{"station_id":"piezo:05635X0154/F","source":"piezo","code":"05635X0154/F","libelle":"forage du stade (chantonnay,85)","en_service":true,"zone_id":"SUD_VENDEE","fichier":"piezo_05635X0154_F"}},{"type":"Feature","geometry":{"type":"Point","coordinates":[-1.647174,46.617694]},"properties":{"station_id":"piezo:05842X0011/P","source":"piezo","code":"05842X0011/P","libelle":"puits(La Mothe Achard,85)","en_service":true,"zone_id":"BOCAGE_COTIERS_VENDEENS","fichier":"piezo_05842X0011_P"}},{"type":"Feature","geometry":{"type":"Point","coordinates":[-1.127522,46.593292]},"properties":{"station_id":"piezo:05854X0047/PZ","source":"piezo","code":"05854X0047/PZ","libelle":"forage du Bois Sorin (bournezeau,85)","en_service":true,"zone_id":"BOCAGE_LAY","fichier":"piezo_05854X0047_PZ"}},{"type":"Feature","geometry":{"type":"Point","coordinates":[-1.182054,46.464408]},"properties":{"station_id":"piezo:05857X0144/F","source":"piezo","code":"05857X0144/F","libelle":"FORAGE (LUÇON,85)","en_service":true,"zone_id":"SUD_VENDEE","fichier":"piezo_05857X0144_F"}},{"type":"Feature","geometry":{"type":"Point","coordinates":[-1.18205,46.464363]},"properties":{"station_id":"piezo:05857X0145/PZ","source":"piezo","code":"05857X0145/PZ","libelle":"FORAGE (LUÇON,85)","en_service":true,"zone_id":"SUD_VENDEE","fichier":"piezo_05857X0145_PZ"}},{"type":"Feature","geometry":{"type":"Point","coordinates":[-1.216282,46.500588]},"properties":{"station_id":"piezo:05857X0185/SF2","source":"piezo","code":"05857X0185/SF2","libelle":"forage (péault,85)","en_service":false,"zone_id":"SUD_VENDEE","fichier":"piezo_05857X0185_SF2"}},{"type":"Feature","geometry":{"type":"Point","coordinates":[-1.165859,46.454832]},"properties":{"station_id":"piezo:05858X0116/F","source":"piezo","code":"05858X0116/F","libelle":"forage Ste-Germaine (Luçon - 85)","en_service":false,"zone_id":"SUD_VENDEE","fichier":"piezo_05858X0116_F"}},{"type":"Feature","geometry":{"type":"Point","coordinates":[-1.144598,46.51145]},"properties":{"station_id":"piezo:05858X0203/S","source":"piezo","code":"05858X0203/S","libelle":"forage de la Chaume (Corpe,85)","en_service":true,"zone_id":"SUD_VENDEE","fichier":"piezo_05858X0203_S"}},{"type":"Feature","geometry":{"type":"Point","coordinates":[-1.007909,46.551751]},"properties":{"station_id":"piezo:05861X0077/SR","source":"piezo","code":"05861X0077/SR","libelle":"forage de la fontaine communale (Corpe,85)","en_service":false,"zone_id":"SUD_VENDEE","fichier":"piezo_05861X0077_SR"}},{"type":"Feature","geometry":{"type":"Point","coordinates":[-1.013552,46.541679]},"properties":{"station_id":"piezo:05861X0113/SF2","source":"piezo","code":"05861X0113/SF2","libelle":"forage de la la Ville Morte(Thiré,85)","en_service":true,"zone_id":"SUD_VENDEE","fichier":"piezo_05861X0113_SF2"}},{"type":"Feature","geometry":{"type":"Point","coordinates":[-0.897917,46.53757]},"properties":{"station_id":"piezo:05863X0203/F","source":"piezo","code":"05863X0203/F","libelle":"FORAGE (ST MARTIN DES FONTAINES,85)","en_service":true,"zone_id":"SUD_VENDEE","fichier":"piezo_05863X0203_F"}},{"type":"Feature","geometry":{"type":"Point","coordinates":[-0.901657,46.545098]},"properties":{"station_id":"piezo:05863X0206/PIEZO","source":"piezo","code":"05863X0206/PIEZO","libelle":"forage des vergnères(St Martin des Fontaines,85)","en_service":true,"zone_id":"SUD_VENDEE","fichier":"piezo_05863X0206_PIEZO"}},{"type":"Feature","geometry":{"type":"Point","coordinates":[-0.998898,46.519868]},"properties":{"station_id":"piezo:05865X0068/S","source":"piezo","code":"05865X0068/S","libelle":"forage du Petit Magnil (St Etienne de Brillouet,85)","en_service":true,"zone_id":"SUD_VENDEE","fichier":"piezo_05865X0068_S"}},{"type":"Feature","geometry":{"type":"Point","coordinates":[-1.011348,46.482761]},"properties":{"station_id":"piezo:05865X0098/SF2","source":"piezo","code":"05865X0098/SF2","libelle":"forage du Gd Crochet (Nalliers,85)","en_service":true,"zone_id":"SUD_VENDEE","fichier":"piezo_05865X0098_SF2"}},{"type":"Feature","geometry":{"type":"Point","coordinates":[-1.077735,46.480157]},"properties":{"station_id":"piezo:05865X0126/S","source":"piezo","code":"05865X0126/S","libelle":"forage du Tous Vents (St Aubin la Plaine,85)","en_service":true,"zone_id":"SUD_VENDEE","fichier":"piezo_05865X0126_S"}},{"type":"Feature","geometry":{"type":"Point","coordinates":[-0.910543,46.486495]},"properties":{"station_id":"piezo:05866X0091/SR","source":"piezo","code":"05866X0091/SR","libelle":"forage du bourg (Pétosse,85)","en_service":true,"zone_id":"SUD_VENDEE","fichier":"piezo_05866X0091_SR"}},{"type":"Feature","geometry":{"type":"Point","coordinates":[-0.836079,46.452581]},"properties":{"station_id":"piezo:05867X0152/SR1","source":"piezo","code":"05867X0152/SR1","libelle":"forage du Gros Noyer (Fontenay le Comte,85)","en_service":true,"zone_id":"SUD_VENDEE","fichier":"piezo_05867X0152_SR1"}},{"type":"Feature","geometry":{"type":"Point","coordinates":[-1.492032,46.415883]},"properties":{"station_id":"piezo:06074X0096/F4","source":"piezo","code":"06074X0096/F4","libelle":"forage de l'Aurière (Longeville,85)","en_service":true,"zone_id":"SUD_VENDEE","fichier":"piezo_06074X0096_F4"}},{"type":"Feature","geometry":{"type":"Point","coordinates":[-1.479105,46.419111]},"properties":{"station_id":"piezo:06074X0120/F","source":"piezo","code":"06074X0120/F","en_service":true,"zone_id":"SUD_VENDEE","fichier":"piezo_06074X0120_F"}},{"type":"Feature","geometry":{"type":"Point","coordinates":[-1.336978,46.428211]},"properties":{"station_id":"piezo:06082X0060/F9","source":"piezo","code":"06082X0060/F9","libelle":"forage des Caillettes(St Benoist sur Mer,85)","en_service":true,"zone_id":"MARAIS_POITEVIN","fichier":"piezo_06082X0060_F9"}},{"type":"Feature","geometry":{"type":"Point","coordinates":[-1.028829,46.432537]},"properties":{"station_id":"piezo:06091X0541/F","source":"piezo","code":"06091X0541/F","libelle":"forage de la Bonde coteau (Ste Radégaonde des Noyers,85)","en_service":true,"zone_id":"MARAIS_POITEVIN","fichier":"piezo_06091X0541_F"}},{"type":"Feature","geometry":{"type":"Point","coordinates":[-0.941808,46.425717]},"properties":{"station_id":"piezo:06092X0584/FORAGE","source":"piezo","code":"06092X0584/FORAGE","libelle":"forage du Breuil (le Langon,85)","en_service":true,"zone_id":"MARAIS_POITEVIN","fichier":"piezo_06092X0584_FORAGE"}},{"type":"Feature","geometry":{"type":"Point","coordinates":[-0.864458,46.399199]},"properties":{"station_id":"piezo:06093X0118/FORAGE","source":"piezo","code":"06093X0118/FORAGE","libelle":"forage de Chottard (Montreuil,85)","en_service":true,"zone_id":"MARAIS_POITEVIN","fichier":"piezo_06093X0118_FORAGE"}},{"type":"Feature","geometry":{"type":"Point","coordinates":[-0.810875,46.40772]},"properties":{"station_id":"piezo:06094X0143/F","source":"piezo","code":"06094X0143/F","libelle":"forage de Billaude (Doix,85)","en_service":true,"zone_id":"SUD_VENDEE","fichier":"piezo_06094X0143_F"}},{"type":"Feature","geometry":{"type":"Point","coordinates":[-0.740739,46.404691]},"properties":{"station_id":"piezo:06094X0181/F","source":"piezo","code":"06094X0181/F","libelle":"forage de Chalais (St Pierre le Vieux,85)","en_service":true,"zone_id":"MARAIS_POITEVIN","fichier":"piezo_06094X0181_F"}},{"type":"Feature","geometry":{"type":"Point","coordinates":[-0.788576,46.410407]},"properties":{"station_id":"piezo:06094X0207/PIEZO","source":"piezo","code":"06094X0207/PIEZO","libelle":"forage (Fontaines,85)","en_service":false,"zone_id":"MARAIS_POITEVIN","fichier":"piezo_06094X0207_PIEZO"}},{"type":"Feature","geometry":{"type":"Point","coordinates":[-0.687081,46.408744]},"properties":{"station_id":"piezo:06101X0202/SP1","source":"piezo","code":"06101X0202/SP1","libelle":"forage du Gd Nati (Oulmes,85)","en_service":true,"zone_id":"SUD_VENDEE","fichier":"piezo_06101X0202_SP1"}},{"type":"Feature","geometry":{"type":"Point","coordinates":[-0.632823,46.361467]},"properties":{"station_id":"piezo:06102X0606/P3","source":"piezo","code":"06102X0606/P3","libelle":"forage d'Aziré (Benet,85)","en_service":false,"zone_id":"SUD_VENDEE","fichier":"piezo_06102X0606_P3"}},{"type":"Feature","geometry":{"type":"Point","coordinates":[-0.629334,46.359488]},"properties":{"station_id":"piezo:06102X0620/PZ","source":"piezo","code":"06102X0620/PZ","libelle":"forage d'Aziré (Benet,85)","en_service":true,"zone_id":"SUD_VENDEE","fichier":"piezo_06102X0620_PZ"}},{"type":"Feature","geometry":{"type":"Point","coordinates":[-2.046385,46.957519]},"properties":{"station_id":"piezo:BSS004AXHK/X","source":"piezo","code":"BSS004AXHK/X","libelle":"F1","en_service":false,"zone_id":"MARAIS_BRETON","fichier":"piezo_BSS004AXHK_X"}},{"type":"Feature","geometry":{"type":"Point","coordinates":[-2.050041,46.959424]},"properties":{"station_id":"piezo:BSS004AXJB/X","source":"piezo","code":"BSS004AXJB/X","libelle":"F2","en_service":false,"zone_id":"MARAIS_BRETON","fichier":"piezo_BSS004AXJB_X"}},{"type":"Feature","geometry":{"type":"Point","coordinates":[-0.710025,46.483713]},"properties":{"station_id":"retenue:ALBERT","source":"retenue","code":"ALBERT","libelle":"ALBERT","en_service":true,"zone_id":"BOCAGE_VENDEE","fichier":"retenue_ALBERT"}},{"type":"Feature","geometry":{"type":"Point","coordinates":[-1.06351,46.645517]},"properties":{"station_id":"retenue:ANGLE_GUIGNARD","source":"retenue","code":"ANGLE_GUIGNARD","libelle":"ANGLE GUIGNARD","en_service":true,"zone_id":"BOCAGE_LAY","fichier":"retenue_ANGLE_GUIGNARD"}},{"type":"Feature","geometry":{"type":"Point","coordinates":[-1.687243,46.755594]},"properties":{"station_id":"retenue:APREMONT","source":"retenue","code":"APREMONT","libelle":"APREMONT","en_service":true,"zone_id":"BOCAGE_VIE_JAUNAY","fichier":"retenue_APREMONT"}},{"type":"Feature","geometry":{"type":"Point","coordinates":[-1.195037,46.917348]},"properties":{"station_id":"retenue:BULTIERE","source":"retenue","code":"BULTIERE","libelle":"BULTIERE","en_service":true,"zone_id":"BOCAGE_MAINES","fichier":"retenue_BULTIERE"}},{"type":"Feature","geometry":{"type":"Point","coordinates":[-1.388211,46.529472]},"properties":{"station_id":"retenue:GRAON","source":"retenue","code":"GRAON","libelle":"GRAON","en_service":true,"zone_id":"BOCAGE_LAY","fichier":"retenue_GRAON"}},{"type":"Feature","geometry":{"type":"Point","coordinates":[-1.757793,46.662311]},"properties":{"station_id":"retenue:JAUNAY","source":"retenue","code":"JAUNAY","libelle":"JAUNAY","en_service":true,"zone_id":"BOCAGE_VIE_JAUNAY","fichier":"retenue_JAUNAY"}},{"type":"Feature","geometry":{"type":"Point","coordinates":[-1.246638,46.573856]},"properties":{"station_id":"retenue:MARILLET","source":"retenue","code":"MARILLET","libelle":"MARILLET","en_service":true,"zone_id":"BOCAGE_LAY","fichier":"retenue_MARILLET"}},{"type":"Feature","geometry":{"type":"Point","coordinates":[-0.762816,46.519939]},"properties":{"station_id":"retenue:MERVENT","source":"retenue","code":"MERVENT","libelle":"MERVENT","en_service":true,"zone_id":"BOCAGE_VENDEE","fichier":"retenue_MERVENT"}},{"type":"Feature","geometry":{"type":"Point","coordinates":[-1.405184,46.705083]},"properties":{"station_id":"retenue:MOULIN_PAPON","source":"retenue","code":"MOULIN_PAPON","libelle":"MOULIN PAPON","en_service":true,"zone_id":"BOCAGE_LAY","fichier":"retenue_MOULIN_PAPON"}},{"type":"Feature","geometry":{"type":"Point","coordinates":[-0.779353,46.557986]},"properties":{"station_id":"retenue:PIERRE_BRUNE","source":"retenue","code":"PIERRE_BRUNE","libelle":"PIERRE BRUNE","en_service":true,"zone_id":"BOCAGE_VENDEE","fichier":"retenue_PIERRE_BRUNE"}},{"type":"Feature","geometry":{"type":"Point","coordinates":[-0.955714,46.704257]},"properties":{"station_id":"retenue:ROCHEREAU","source":"retenue","code":"ROCHEREAU","libelle":"ROCHEREAU","en_service":true,"zone_id":"BOCAGE_LAY","fichier":"retenue_ROCHEREAU"}},{"type":"Feature","geometry":{"type":"Point","coordinates":[-1.552236,46.493105]},"properties":{"station_id":"retenue:SORIN_FINFARINE","source":"retenue","code":"SORIN_FINFARINE","libelle":"SORIN/FINFARINE","en_service":true,"zone_id":"BOCAGE_COTIERS_VENDEENS","fichier":"retenue_SORIN_FINFARINE"}},{"type":"Feature","geometry":{"type":"Point","coordinates":[-1.15697,46.66381]},"properties":{"station_id":"retenue:VOURAIE","source":"retenue","code":"VOURAIE","libelle":"VOURAIE","en_service":true,"zone_id":"BOCAGE_LAY","fichier":"retenue_VOURAIE"}}]}